[{"OBJECT_NAME":"STARLINK-35286","OBJECT_ID":"2025-218N","EPOCH":"2026-03-09T14:32:37.590432","MEAN_MOTION":15.0564936,"ECCENTRICITY":0.0002899,"INCLINATION":97.6012,"RA_OF_ASC_NODE":292.8177,"ARG_OF_PERICENTER":85.3734,"MEAN_ANOMALY":274.7823,"EPHEMERIS_TYPE":0,"CLASSIFICATION_TYPE":"U","NORAD_CAT_ID":65803,"ELEMENT_SET_NO":999,"REV_AT_EPOCH":2495,"BSTAR":0.00044313,"MEAN_MOTION_DOT":6.339e-5,"MEAN_MOTION_DDOT":0},{"OBJECT_NAME":"COSMOS 886 DEB","OBJECT_ID":"1976-126H","EPOCH":"2026-03-09T13:45:20.274912","MEAN_MOTION":13.34259572,"ECCENTRICITY":0.0780969,"INCLINATION":65.7903,"RA_OF_ASC_NODE":130.587,"ARG_OF_PERICENTER":142.7819,"MEAN_ANOMALY":223.008,"EPHEMERIS_TYPE":0,"CLASSIFICATION_TYPE":"U","NORAD_CAT_ID":9651,"ELEMENT_SET_NO":999,"REV_AT_EPOCH":33873,"BSTAR":0.00068915,"MEAN_MOTION_DOT":1.985e-5,"MEAN_MOTION_DDOT":0}]
